{
  "norad_id": 55650,
  "name": "STARLINK-5494",
  "history": [
    {
      "epoch": "2026-03-28T20:41:46.884480Z",
      "apogee_km": 574.3627476469946,
      "perigee_km": 569.6822322400885,
      "latitude_deg": 5.220858885906117e-05,
      "longitude_deg": -0.6184381834575683,
      "height_km": 574.3568779124311,
      "semi_major_axis_km": 6950.159489943541,
      "eccentricity": 0.00033672,
      "inclination_deg": 69.9991,
      "raan_deg": 136.1036,
      "arg_perigee_deg": 272.286,
      "mean_anomaly_deg": 87.7914,
      "mean_motion_rev_day": 14.98340801
    },
    {
      "epoch": "2026-03-29T04:42:28.577376Z",
      "apogee_km": 574.3369135737812,
      "perigee_km": 569.8137153995131,
      "latitude_deg": -1.3423579358295107e-05,
      "longitude_deg": -121.96310625147183,
      "height_km": 574.4766369588812,
      "semi_major_axis_km": 6950.212314486647,
      "eccentricity": 0.0003254,
      "inclination_deg": 69.9988,
      "raan_deg": 135.2617,
      "arg_perigee_deg": 270.6659,
      "mean_anomaly_deg": 89.4127,
      "mean_motion_rev_day": 14.98323719
    },
    {
      "epoch": "2026-03-30T04:44:29.270400Z",
      "apogee_km": 574.2992299878206,
      "perigee_km": 569.7982896897483,
      "latitude_deg": -1.6920826873290945e-05,
      "longitude_deg": -125.97761631471282,
      "height_km": 574.3958525807417,
      "semi_major_axis_km": 6950.185759838784,
      "eccentricity": 0.0003238,
      "inclination_deg": 69.9987,
      "raan_deg": 132.7371,
      "arg_perigee_deg": 272.0497,
      "mean_anomaly_deg": 88.0291,
      "mean_motion_rev_day": 14.98332306
    },
    {
      "epoch": "2026-03-30T06:20:37.337856Z",
      "apogee_km": 574.4221955380463,
      "perigee_km": 569.6856404274422,
      "latitude_deg": -6.028362489801806e-05,
      "longitude_deg": -150.24514803377778,
      "height_km": 574.4234839443684,
      "semi_major_axis_km": 6950.190917982744,
      "eccentricity": 0.00034075,
      "inclination_deg": 69.9983,
      "raan_deg": 132.569,
      "arg_perigee_deg": 271.4071,
      "mean_anomaly_deg": 88.6697,
      "mean_motion_rev_day": 14.98330638
    },
    {
      "epoch": "2026-03-30T12:45:09.555840Z",
      "apogee_km": 574.2937916282863,
      "perigee_km": 569.7991079912954,
      "latitude_deg": 4.798293296358317e-05,
      "longitude_deg": 112.68394366761669,
      "height_km": 574.4504996152651,
      "semi_major_axis_km": 6950.183449809791,
      "eccentricity": 0.00032335,
      "inclination_deg": 69.9989,
      "raan_deg": 131.8955,
      "arg_perigee_deg": 270.6004,
      "mean_anomaly_deg": 89.4785,
      "mean_motion_rev_day": 14.98333053
    },
    {
      "epoch": "2026-03-31T12:47:11.161248Z",
      "apogee_km": 574.3192671602446,
      "perigee_km": 569.9076651793475,
      "latitude_deg": -3.191338153673321e-05,
      "longitude_deg": 108.66539459196449,
      "height_km": 574.5151176113027,
      "semi_major_axis_km": 6950.250466169796,
      "eccentricity": 0.00031737,
      "inclination_deg": 69.9988,
      "raan_deg": 129.3707,
      "arg_perigee_deg": 270.6719,
      "mean_anomaly_deg": 89.4076,
      "mean_motion_rev_day": 14.98311382
    },
    {
      "epoch": "2026-04-01T19:13:44.361696Z",
      "apogee_km": 574.1992153525462,
      "perigee_km": 569.9331806296195,
      "latitude_deg": -3.300196587361975e-05,
      "longitude_deg": 7.579729305425775,
      "height_km": 574.4676402594736,
      "semi_major_axis_km": 6950.203197991083,
      "eccentricity": 0.0003069,
      "inclination_deg": 69.9995,
      "raan_deg": 126.1736,
      "arg_perigee_deg": 270.6995,
      "mean_anomaly_deg": 89.3812,
      "mean_motion_rev_day": 14.98326667
    }
  ]
}